{"spkid": "50827446", "covariance": {"data": [["1.457343985464846E-13", "-2.685691983016814E-13", "-9.136646474583428E-12", "3.801649832497582E-12", "-3.821641960487228E-11", "9.662006485978423E-12"], ["-2.685691983016814E-13", "4.949429766846872E-13", "1.683852377754159E-11", "-6.984662046305203E-12", "7.040455041699626E-11", "-1.777999275917303E-11"], ["-9.136646474583428E-12", "1.683852377754159E-11", "6.253783313427879E-10", "-2.51945800977872E-10", "2.448579349631E-9", "-6.446696432851951E-10"], ["3.801649832497582E-12", "-6.984662046305203E-12", "-2.51945800977872E-10", "3.137792814956738E-10", "-1.217597171030908E-9", "4.463074233418186E-10"], ["-3.821641960487228E-11", "7.040455041699626E-11", "2.448579349631E-9", "-1.217597171030908E-9", "1.028745324168909E-8", "-2.759381890599962E-9"], ["9.662006485978423E-12", "-1.777999275917303E-11", "-6.446696432851951E-10", "4.463074233418186E-10", "-2.759381890599962E-9", "1.015154423876908E-9"]], "elements": [{"sigma": 3.81751749893153e-07, "name": "e", "title": "eccentricity", "value": ".5868668150189443", "units": null, "label": "e"}, {"sigma": 7.03521838100771e-07, "name": "q", "title": "perihelion distance", "value": ".7633162012921577", "units": "au", "label": "q"}, {"sigma": 2.50075654821254e-05, "name": "tp", "value": "2460158.341030597458", "title": "time of perihelion passage", "units": "TDB", "label": "tp"}, {"label": "node", "units": "deg", "title": "longitude of the ascending node", "value": "354.5353323359462", "name": "om", "sigma": 1.77138161189416e-05}, {"units": "deg", "title": "argument of perihelion", "value": "283.7902526265129", "sigma": 0.000101427083373668, "name": "w", "label": "peri"}, {"label": "i", "name": "i", "sigma": 3.18614880989088e-05, "units": "deg", "title": "inclination", "value": "13.19726912381027"}], "labels": ["e", "q", "tp", "node", "peri", "i"], "epoch": "2459804.5"}, "elements": [{"name": "e", "sigma": "3.8152E-7", "title": "eccentricity", "value": ".5881186834273334", "units": null, "label": "e"}, {"label": "a", "sigma": "6.4317E-9", "name": "a", "units": "au", "title": "semi-major axis", "value": "1.847945472134515"}, {"label": "q", "value": ".7611342140172618", "title": "perihelion distance", "units": "au", "name": "q", "sigma": "7.0357E-7"}, {"title": "inclination; angle with respect to x-y ecliptic plane", "value": "13.20093079097136", "units": "deg", "name": "i", "sigma": "3.1853E-5", "label": "i"}, {"label": "node", "sigma": "1.7354E-5", "name": "om", "units": "deg", "title": "longitude of the ascending node", "value": "354.3434294231495"}, {"units": "deg", "title": "argument of perihelion", "value": "284.0192714167891", "name": "w", "sigma": ".00010044", "label": "peri"}, {"label": "M", "units": "deg", "value": "48.57644692904721", "title": "mean anomaly", "sigma": "7.7659E-6", "name": "ma"}, {"units": "TDB", "value": "2461076.690092232124", "title": "time of perihelion passage", "name": "tp", "sigma": "2.0011E-5", "label": "tp"}, {"label": "period", "value": "917.555103639806", "title": "sidereal orbital period", "units": "d", "name": "per", "sigma": "4.7903E-6"}, {"label": "n", "units": "deg/d", "title": "mean motion", "value": ".3923470084487929", "name": "n", "sigma": "2.0483E-9"}, {"sigma": "1.0214E-8", "name": "ad", "units": "au", "title": "aphelion distance", "value": "2.934756730251768", "label": "Q"}], "epoch": "2461200.5"}